{"type": "FeatureCollection", "features": [ {"type": "Feature", "properties": {"norad_id": 66399, "name": "STARLINK-35657", "group": "last-30-days", "lat": -26.385160263071814, "lon": 135.55522170611047, "alt_km": 422.1316703672155, "timestamp": "2025-12-06T11:28:09.784203+00:00", "meta": {"OBJECT_NAME": "STARLINK-35657", "OBJECT_ID": "2025-257V", "EPOCH": "2025-12-05T14:25:38.671392", "MEAN_MOTION": 15.49385482, "ECCENTRICITY": 0.00015494, "INCLINATION": 53.1593, "RA_OF_ASC_NODE": 297.9151, "ARG_OF_PERICENTER": 70.8404, "MEAN_ANOMALY": 289.2773, "EPHEMERIS_TYPE": 0, "CLASSIFICATION_TYPE": "U", "NORAD_CAT_ID": 66399, "ELEMENT_SET_NO": 999, "REV_AT_EPOCH": 527, "BSTAR": 0.0027226255, "MEAN_MOTION_DOT": 0.00154418, "MEAN_MOTION_DDOT": 0}, "tle": {"line1": "1 66399U 25257V   25339.60114203  .00154418  00000+0  27226-2 0  9996", "line2": "2 66399  53.1593 297.9151 0001549  70.8404 289.2773 15.49385482  5278"}}, "geometry": {"type": "Point", "coordinates": [135.55522170611047, -26.385160263071814]}}, {"type": "Feature", "properties": {"norad_id": 66400, "name": "STARLINK-35667", "group": "last-30-days", "lat": -27.44779145797408, "lon": 136.63566101328598, "alt_km": 422.18028533536926, "timestamp": "2025-12-06T11:28:09.784226+00:00", "meta": {"OBJECT_NAME": "STARLINK-35667", "OBJECT_ID": "2025-257W", "EPOCH": "2025-12-05T23:42:28.950048", "MEAN_MOTION": 15.49298892, "ECCENTRICITY": 0.00023266, "INCLINATION": 53.1592, "RA_OF_ASC_NODE": 296.0611, "ARG_OF_PERICENTER": 119.4836, "MEAN_ANOMALY": 240.6405, "EPHEMERIS_TYPE": 0, "CLASSIFICATION_TYPE": "U", "NORAD_CAT_ID": 66400, "ELEMENT_SET_NO": 999, "REV_AT_EPOCH": 533, "BSTAR": 0.0022780673, "MEAN_MOTION_DOT": 0.00128308, "MEAN_MOTION_DDOT": 0}, "tle": {"line1": "1 66400U 25257W   25339.98783507  .00128308  00000+0  22781-2 0  9999", "line2": "2 66400  53.1592 296.0611 0002326 119.4836 240.6405 15.49298892  5332"}}, "geometry": {"type": "Point", "coordinates": [136.63566101328598, -27.44779145797408]}}, {"type": "Feature", "properties": {"norad_id": 66401, "name": "STARLINK-35668", "group": "last-30-days", "lat": -19.710094604481544, "lon": 129.31764758607383, "alt_km": 439.64426101668596, "timestamp": "2025-12-06T11:28:09.784246+00:00", "meta": {"OBJECT_NAME": "STARLINK-35668", "OBJECT_ID": "2025-257X", "EPOCH": "2025-12-05T17:30:18.527040", "MEAN_MOTION": 15.46513321, "ECCENTRICITY": 0.00219476, "INCLINATION": 53.1594, "RA_OF_ASC_NODE": 297.2908, "ARG_OF_PERICENTER": 120.065, "MEAN_ANOMALY": 240.2538, "EPHEMERIS_TYPE": 0, "CLASSIFICATION_TYPE": "U", "NORAD_CAT_ID": 66401, "ELEMENT_SET_NO": 999, "REV_AT_EPOCH": 529, "BSTAR": -0.055037874, "MEAN_MOTION_DOT": -0.02497787, "MEAN_MOTION_DDOT": 0}, "tle": {"line1": "1 66401U 25257X   25339.72938110 -.02497787  00000+0 -55038-1 0  9998", "line2": "2 66401  53.1594 297.2908 0021947 120.0650 240.2538 15.46513321  5291"}}, "geometry": {"type": "Point", "coordinates": [129.31764758607383, -19.710094604481544]}}, {"type": "Feature", "properties": {"norad_id": 66402, "name": "STARLINK-35644", "group": "last-30-days", "lat": -28.752033019503845, "lon": 138.00346017085693, "alt_km": 423.24665394080876, "timestamp": "2025-12-06T11:28:09.784270+00:00", "meta": {"OBJECT_NAME": "STARLINK-35644", "OBJECT_ID": "2025-257Y", "EPOCH": "2025-12-05T23:42:00.131328", "MEAN_MOTION": 15.49284624, "ECCENTRICITY": 0.00015592, "INCLINATION": 53.1581, "RA_OF_ASC_NODE": 296.0579, "ARG_OF_PERICENTER": 62.3404, "MEAN_ANOMALY": 297.7763, "EPHEMERIS_TYPE": 0, "CLASSIFICATION_TYPE": "U", "NORAD_CAT_ID": 66402, "ELEMENT_SET_NO": 999, "REV_AT_EPOCH": 533, "BSTAR": 0.0016709027, "MEAN_MOTION_DOT": 0.0009352, "MEAN_MOTION_DDOT": 0}, "tle": {"line1": "1 66402U 25257Y   25339.98750152  .00093520  00000+0  16709-2 0  9991", "line2": "2 66402  53.1581 296.0579 0001559  62.3404 297.7763 15.49284624  5337"}}, "geometry": {"type": "Point", "coordinates": [138.00346017085693, -28.752033019503845]}}, {"type": "Feature", "properties": {"norad_id": 66403, "name": "STARLINK-35602", "group": "last-30-days", "lat": -30.109287188761808, "lon": 139.47933964758886, "alt_km": 423.08298778172593, "timestamp": "2025-12-06T11:28:09.784292+00:00", "meta": {"OBJECT_NAME": "STARLINK-35602", "OBJECT_ID": "2025-257Z", "EPOCH": "2025-12-05T22:00:03.000096", "MEAN_MOTION": 15.49350612, "ECCENTRICITY": 0.000128, "INCLINATION": 53.1591, "RA_OF_ASC_NODE": 296.3925, "ARG_OF_PERICENTER": 102.9405, "MEAN_ANOMALY": 223.9714, "EPHEMERIS_TYPE": 0, "CLASSIFICATION_TYPE": "U", "NORAD_CAT_ID": 66403, "ELEMENT_SET_NO": 999, "REV_AT_EPOCH": 540, "BSTAR": -0.0013761541, "MEAN_MOTION_DOT": -0.00076353, "MEAN_MOTION_DDOT": 0}, "tle": {"line1": "1 66403U 25257Z   25339.91670139 -.00076353  00000+0 -13762-2 0  9994", "line2": "2 66403  53.1591 296.3925 0001280 102.9405 223.9714 15.49350612  5406"}}, "geometry": {"type": "Point", "coordinates": [139.47933964758886, -30.109287188761808]}}, {"type": "Feature", "properties": {"norad_id": 66404, "name": "STARLINK-35691", "group": "last-30-days", "lat": -31.651640495163072, "lon": 141.23280177875372, "alt_km": 422.29082085883965, "timestamp": "2025-12-06T11:28:09.784310+00:00", "meta": {"OBJECT_NAME": "STARLINK-35691", "OBJECT_ID": "2025-257AA", "EPOCH": "2025-12-05T22:08:07.251360", "MEAN_MOTION": 15.49343728, "ECCENTRICITY": 0.00011307, "INCLINATION": 53.1587, "RA_OF_ASC_NODE": 296.3624, "ARG_OF_PERICENTER": 113.8336, "MEAN_ANOMALY": 246.2792, "EPHEMERIS_TYPE": 0, "CLASSIFICATION_TYPE": "U", "NORAD_CAT_ID": 66404, "ELEMENT_SET_NO": 999, "REV_AT_EPOCH": 532, "BSTAR": 0.002670334, "MEAN_MOTION_DOT": 0.00151157, "MEAN_MOTION_DDOT": 0}, "tle": {"line1": "1 66404U 25257AA  25339.92230615  .00151157  00000+0  26703-2 0  9990", "line2": "2 66404  53.1587 296.3624 0001130 113.8336 246.2792 15.49343728  5321"}}, "geometry": {"type": "Point", "coordinates": [141.23280177875372, -31.651640495163072]}}, {"type": "Feature", "properties": {"norad_id": 66405, "name": "STARLINK-35683", "group": "last-30-days", "lat": -33.0601509132568, "lon": 142.90781437925028, "alt_km": 422.8250738479901, "timestamp": "2025-12-06T11:28:09.784326+00:00", "meta": {"OBJECT_NAME": "STARLINK-35683", "OBJECT_ID": "2025-257AB", "EPOCH": "2025-12-05T03:32:55.910112", "MEAN_MOTION": 15.49296572, "ECCENTRICITY": 0.00011798, "INCLINATION": 53.1594, "RA_OF_ASC_NODE": 300.0603, "ARG_OF_PERICENTER": 87.8456, "MEAN_ANOMALY": 272.2688, "EPHEMERIS_TYPE": 0, "CLASSIFICATION_TYPE": "U", "NORAD_CAT_ID": 66405, "ELEMENT_SET_NO": 999, "REV_AT_EPOCH": 513, "BSTAR": 0.0011542428, "MEAN_MOTION_DOT": 0.00064247, "MEAN_MOTION_DDOT": 0}, "tle": {"line1": "1 66405U 25257AB  25339.14786933  .00064247  00000+0  11542-2 0  9992", "line2": "2 66405  53.1594 300.0603 0001179  87.8456 272.2688 15.49296572  5132"}}, "geometry": {"type": "Point", "coordinates": [142.90781437925028, -33.0601509132568]}}, {"type": "Feature", "properties": {"norad_id": 66406, "name": "STARLINK-34840", "group": "last-30-days", "lat": -36.82026177476261, "lon": 147.8357864213001, "alt_km": 423.57119225073984, "timestamp": "2025-12-06T11:28:09.784343+00:00", "meta": {"OBJECT_NAME": "STARLINK-34840", "OBJECT_ID": "2025-257AC", "EPOCH": "2025-12-05T23:39:02.144736", "MEAN_MOTION": 15.49331836, "ECCENTRICITY": 0.00014282, "INCLINATION": 53.1584, "RA_OF_ASC_NODE": 296.045, "ARG_OF_PERICENTER": 70.1271, "MEAN_ANOMALY": 289.9892, "EPHEMERIS_TYPE": 0, "CLASSIFICATION_TYPE": "U", "NORAD_CAT_ID": 66406, "ELEMENT_SET_NO": 999, "REV_AT_EPOCH": 527, "BSTAR": 0.0013908637, "MEAN_MOTION_DOT": 0.00077742, "MEAN_MOTION_DDOT": 0}, "tle": {"line1": "1 66406U 25257AC  25339.98544149  .00077742  00000+0  13909-2 0  9999", "line2": "2 66406  53.1584 296.0450 0001428  70.1271 289.9892 15.49331836  5273"}}, "geometry": {"type": "Point", "coordinates": [147.8357864213001, -36.82026177476261]}}, {"type": "Feature", "properties": {"norad_id": 66407, "name": "STARLINK-35686", "group": "last-30-days", "lat": -34.21734677198497, "lon": 144.35130786475145, "alt_km": 423.24366304680007, "timestamp": "2025-12-06T11:28:09.784364+00:00", "meta": {"OBJECT_NAME": "STARLINK-35686", "OBJECT_ID": "2025-257AD", "EPOCH": "2025-12-05T23:40:01.455744", "MEAN_MOTION": 15.49316432, "ECCENTRICITY": 0.00010325, "INCLINATION": 53.1588, "RA_OF_ASC_NODE": 296.0488, "ARG_OF_PERICENTER": 50.4075, "MEAN_ANOMALY": 309.7026, "EPHEMERIS_TYPE": 0, "CLASSIFICATION_TYPE": "U", "NORAD_CAT_ID": 66407, "ELEMENT_SET_NO": 999, "REV_AT_EPOCH": 533, "BSTAR": 0.0016306165, "MEAN_MOTION_DOT": 0.0009133, "MEAN_MOTION_DDOT": 0}, "tle": {"line1": "1 66407U 25257AD  25339.98612796  .00091330  00000+0  16306-2 0  9997", "line2": "2 66407  53.1588 296.0488 0001032  50.4075 309.7026 15.49316432  5335"}}, "geometry": {"type": "Point", "coordinates": [144.35130786475145, -34.21734677198497]}}, {"type": "Feature", "properties": {"norad_id": 66408, "name": "STARLINK-35679", "group": "last-30-days", "lat": -35.62740081687456, "lon": 146.19473536658776, "alt_km": 422.8369954555974, "timestamp": "2025-12-06T11:28:09.784387+00:00", "meta": {"OBJECT_NAME": "STARLINK-35679", "OBJECT_ID": "2025-257AE", "EPOCH": "2025-12-05T22:06:38.305152", "MEAN_MOTION": 15.49358652, "ECCENTRICITY": 7.991e-05, "INCLINATION": 53.159, "RA_OF_ASC_NODE": 296.3568, "ARG_OF_PERICENTER": 63.0684, "MEAN_ANOMALY": 297.0407, "EPHEMERIS_TYPE": 0, "CLASSIFICATION_TYPE": "U", "NORAD_CAT_ID": 66408, "ELEMENT_SET_NO": 999, "REV_AT_EPOCH": 532, "BSTAR": 0.0023857485, "MEAN_MOTION_DOT": 0.00134786, "MEAN_MOTION_DDOT": 0}, "tle": {"line1": "1 66408U 25257AE  25339.92127668  .00134786  00000+0  23857-2 0  9993", "line2": "2 66408  53.1590 296.3568 0000799  63.0684 297.0407 15.49358652  5327"}}, "geometry": {"type": "Point", "coordinates": [146.19473536658776, -35.62740081687456]}}]}